NUSAT-1 (FRESCO)        
1 41557U 16033B   22050.17610617  .00008215  00000+0  27060-3 0  9996
2 41557  97.3879 147.9961 0013409  79.5183   8.6321 15.31649506319265
BEESAT-4                
1 41619U 16040W   22049.68774869  .00007288  00000+0  27060-3 0  9996
2 41619  97.2355 103.6772 0010367 170.5541 189.5896 15.27806462302574
CAS-2T & KS-1Q          
1 41847U 16066G   22049.88606800  .00000607  00000+0  10162-3 0  9991
2 41847  98.5676 114.6183 0364320 204.2598 154.1058 14.38370824277302
NAYIF-1 (EO-88)         
1 42017U 17008BX  22049.73417743  .00008175  00000+0  27710-3 0  9993
2 42017  97.2851 117.8356 0004461 324.7629  35.3317 15.30795878278896
ZHUHAI-1 02 (CAS-4B)    
1 42759U 17034B   22050.09179174  .00002289  00000+0  14798-3 0  9991
2 42759  43.0172 264.6003 0009362 267.9793 232.7813 15.10925233258440
ZHUHAI-1 01 (CAS-4A)    
1 42761U 17034D   22050.06732549  .00002367  00000+0  15221-3 0  9991
2 42761  43.0172 263.6090 0009869 268.2442 225.9883 15.11010774258442
MAX VALIER SAT          
1 42778U 17036P   22049.62966152  .00003940  00000+0  16036-3 0  9993
2 42778  97.2236  94.8766 0012154  34.8787 325.3246 15.25007132258780
RADFXSAT (FOX-1B)       
1 43017U 17073E   22049.72129306  .00002201  00000+0  17277-3 0  9991
2 43017  97.6891 308.7614 0251078 216.0393 142.3667 14.80403690229549
FOX-1D (AO-92)          
1 43137U 18004AC  22049.70347214  .00005299  00000+0  20257-3 0  9999
2 43137  97.3810 126.0932 0009616  67.1812 293.0442 15.26988533228217
DIWATA-2B               
1 43678U 18084H   22050.14981663  .00000740  00000+0  78870-4 0  9990
2 43678  97.9497 182.1951 0009294 324.1058  35.9477 14.91928050180215
ES'HAIL 2               
1 43700U 18090A   22049.89092205  .00000147  00000+0  00000+0 0  9994
2 43700   0.0091 122.7114 0002489 237.4114 135.2023  1.00273023 11847
FOX-1CLIFF (AO-95)      
1 43770U 18099N   22049.87433103  .00001818  00000+0  16780-3 0  9996
2 43770  97.6362 119.2804 0013183 317.8675  42.1532 14.95790668175289
ITASAT 1                
1 43786U 18099AE  22050.15042419  .00001393  00000+0  12904-3 0  9994
2 43786  97.6386 120.3971 0013719 309.1344  50.8657 14.96025232175364
JY1SAT (JO-97)          
1 43803U 18099AX  22049.86675540  .00001935  00000+0  17568-3 0  9990
2 43803  97.6345 119.8577 0013588 308.6910  51.3096 14.96367704175334
UWE-4                   
1 43880U 18111E   22049.68323593  .00002184  00000+0  19254-3 0  9999
2 43880  97.6767 318.0833 0012099   7.3201 352.8195 14.97407035171920
NEXUS (FO-99)           
1 43937U 19003F   22049.66021391  .00006277  00000+0  23246-3 0  9995
2 43937  97.1468  87.7881 0020995 214.0752 145.9142 15.27783253171826
PSAT2 (NO-104)          
1 44354U 19036R   22049.94173223  .00054288  00000+0  61410-3 0  9998
2 44354  28.5237 271.1090 0279425  88.9034 274.3558 15.25959267146477
BRICSAT2 (NO-103)       
1 44355U 19036S   22050.01699007  .00151937 -69158-6  85025-3 0  9996
2 44355  28.5220 166.3447 0143662 259.5741  98.8645 15.64503226147521
JAISAT-1                
1 44419U 19038F   22050.17534863  .00004472  00000+0  24042-3 0  9990
2 44419  97.6233  19.6438 0020388 175.6569 184.4843 15.15233092145132
DUCHIFAT-3              
1 44854U 19089C   22050.19877999  .00002661  00000+0  21519-3 0  9995
2 44854  36.9665  80.8855 0008761 335.4423  24.5891 15.00159080120160
CAS-6 (TO-108)          
1 44881U 19093C   22050.12447911  .00000435  00000+0  62123-4 0  9994
2 44881  97.9029 131.0048 0014163 206.5284 153.5200 14.81571820117251
RS-44 & BREEZE-KM R/B   
1 44909U 19096E   22049.82279408  .00000022  00000+0  48885-4 0  9998
2 44909  82.5230 309.1095 0216409 236.9977 121.0163 12.79711998100335
ORBITAL FACTORY 2 (OF-2)
1 45113U 19071C   22049.92540579  .00011879  00000+0  30577-3 0  9990
2 45113  51.6390 279.8511 0011224 109.4804 250.7394 15.39613296115089
HUSKYSAT-1 (HO-107)     
1 45119U 19071J   22049.88637472  .00010618  00000+0  27714-3 0  9999
2 45119  51.6398 279.5746 0010690 105.2743 254.9424 15.39317711115074
BY70-2                  
1 45857U 20042B   22050.09314352  .00004912  00000+0  68395-3 0  9992
2 45857  97.9644 128.1919 0012028 136.0420 224.1599 14.78181398 87962
SALSAT                  
1 46495U 20068K   22049.81975289  .00001283  00000+0  97473-4 0  9997
2 46495  97.7198 351.2291 0015560 324.9645  35.0556 15.03904955 76350
BY70-3                  
1 46839U 20079N   22050.18880328  .00012127  00000+0  33644-3 0  9990
2 46839  97.2139 124.2169 0007627  49.4213   3.2195 15.37033653 72053
RADFXSAT-2 (AO-109)     
1 47311U 21002C   22050.12854558  .00004127  00000+0  18349-3 0  9999
2 47311  60.6850  86.9283 0021209 181.0185 179.0863 15.23226007 60432
UVSQ-SAT                
1 47438U 21006AB  22049.71508107  .00003578  00000+0  19933-3 0  9991
2 47438  97.4544 111.1991 0011549 333.3305  26.7332 15.14195299 59300
DIY-1 (ARDUIQUBE)       
1 47963U 21022AH  22049.71136179  .00006970  00000+0  43458-3 0  9996
2 47963  97.5437 312.7399 0018170 175.6610 184.4780 15.09712863 49011
XW-3 (CAS-9)            
1 50466U 21131B   22050.13158295  .00000106  00000+0  49238-4 0  9998
2 50466  98.5915 127.4031 0005703 133.2602 226.9078 14.38443627  7902
